EXPRESS-AM44            
1 33595U 09007A   26115.92143954 -.00000100  00000+0  00000+0 0  9993
2 33595   3.3312  79.0044 0004092 313.2587 142.3930  1.00271464 51763
NSS-9                   
1 33749U 09008A   26115.81726578  .00000059  00000+0  00000+0 0  9994
2 33749   1.1281  83.0801 0002160 293.4689 314.5546  1.00271385 62992
TELSTAR 11N             
1 34111U 09009A   26115.91615285  .00000000  00000+0  00000+0 0  9998
2 34111   0.0133 230.5627 0002559 152.2382 123.3873  1.00267441 45728
WGS F2 (USA 204)        
1 34713U 09017A   26115.92474016  .00000000  00000+0  00000+0 0  9991
2 34713   0.0127 245.7905 0001642 330.6711  27.8763  1.00263387 45097
SES-7 (PROTOSTAR 2)     
1 34941U 09027A   26115.80244571 -.00000358  00000+0  00000+0 0  9990
2 34941   0.0951  79.1480 0001780 244.8253 286.9758  1.00270853 62101
MEASAT-3A               
1 35362U 09032A   26115.86726468 -.00000124  00000+0  00000+0 0  9991
2 35362   0.0369  47.0671 0003434 346.4442 292.5777  1.00271582  7502
GOES 14                 
1 35491U 09033A   26115.87683597 -.00000057  00000+0  00000+0 0  9996
2 35491   1.5570  83.6370 0001710 311.6603 305.3506  1.00116377  6068
FM-5                    
1 35493U 09034A   26115.86780985 -.00000214  00000+0  00000+0 0  9992
2 35493   0.0135 264.8841 0000671  28.0187 147.2350  1.00270622 46112
TERRESTAR-1             
1 35496U 09035A   26115.60374433 -.00000067  00000+0  00000+0 0  9991
2 35496   5.1491  48.8070 0002957 347.0409 284.1124  1.00272151 61600
ASIASAT 5               
1 35696U 09042A   26114.80270286 -.00000321  00000+0  00000+0 0  9996
2 35696   0.0610  87.0873 0001673 309.2096 205.9919  1.00268854 61171
JCSAT-12 (JCSAT-RA)     
1 35755U 09044A   26115.66453306  .00000000  00000+0  00000+0 0  9998
2 35755   0.0116 249.8606 0000412 163.1762 171.9285  1.00266711 61085
OPTUS D3                
1 35756U 09044B   26115.88321939 -.00000161  00000+0  00000+0 0  9998
2 35756   0.8570 270.2154 0003118 119.8670 297.8997  1.00270794 61046
NIMIQ 5                 
1 35873U 09050A   26115.86780985  .00000000  00000+0  00000+0 0  9994
2 35873   0.0218 108.1624 0003010 295.8677  49.5663  1.00268867 60826
AMAZONAS 2              
1 35942U 09054A   26115.87336475 -.00000295  00000+0  00000+0 0  9994
2 35942   1.6808  83.6760 0003393 303.9428  79.8770  1.00273586 60663
COMSATBW-1              
1 35943U 09054B   26115.97905775  .00000000  00000+0  00000+0 0  9994
2 35943   0.0187 107.9387 0003594 295.8941 225.6245  1.00269872 60788
NSS-12                  
1 36032U 09058A   26115.97623211  .00000058  00000+0  00000+0 0  9993
2 36032   0.0613  61.9212 0005045 309.9464 250.5525  1.00271946 60398
THOR 6                  
1 36033U 09058B   26115.92343288 -.00000023  00000+0  00000+0 0  9995
2 36033   0.0386  73.7247 0001747 319.4232 152.3792  1.00272061 60483
