[{"OBJECT_NAME":"EXPRESS-AM44","OBJECT_ID":"2009-007A","EPOCH":"2026-04-25T22:06:52.376256","MEAN_MOTION":1.00271464,"ECCENTRICITY":0.00040921,"INCLINATION":3.3312,"RA_OF_ASC_NODE":79.0044,"ARG_OF_PERICENTER":313.2587,"MEAN_ANOMALY":142.393,"EPHEMERIS_TYPE":0,"CLASSIFICATION_TYPE":"U","NORAD_CAT_ID":33595,"ELEMENT_SET_NO":999,"REV_AT_EPOCH":5176,"BSTAR":0,"MEAN_MOTION_DOT":-1.0e-6,"MEAN_MOTION_DDOT":0},{"OBJECT_NAME":"NSS-9","OBJECT_ID":"2009-008A","EPOCH":"2026-04-25T19:36:51.763392","MEAN_MOTION":1.00271385,"ECCENTRICITY":0.00021603,"INCLINATION":1.1281,"RA_OF_ASC_NODE":83.0801,"ARG_OF_PERICENTER":293.4689,"MEAN_ANOMALY":314.5546,"EPHEMERIS_TYPE":0,"CLASSIFICATION_TYPE":"U","NORAD_CAT_ID":33749,"ELEMENT_SET_NO":999,"REV_AT_EPOCH":6299,"BSTAR":0,"MEAN_MOTION_DOT":5.9e-7,"MEAN_MOTION_DDOT":0},{"OBJECT_NAME":"TELSTAR 11N","OBJECT_ID":"2009-009A","EPOCH":"2026-04-25T21:59:15.606240","MEAN_MOTION":1.00267441,"ECCENTRICITY":0.0002559,"INCLINATION":0.0133,"RA_OF_ASC_NODE":230.5627,"ARG_OF_PERICENTER":152.2382,"MEAN_ANOMALY":123.3873,"EPHEMERIS_TYPE":0,"CLASSIFICATION_TYPE":"U","NORAD_CAT_ID":34111,"ELEMENT_SET_NO":999,"REV_AT_EPOCH":4572,"BSTAR":0,"MEAN_MOTION_DOT":0,"MEAN_MOTION_DDOT":0},{"OBJECT_NAME":"WGS F2 (USA 204)","OBJECT_ID":"2009-017A","EPOCH":"2026-04-25T22:11:37.549824","MEAN_MOTION":1.00263387,"ECCENTRICITY":0.00016426,"INCLINATION":0.0127,"RA_OF_ASC_NODE":245.7905,"ARG_OF_PERICENTER":330.6711,"MEAN_ANOMALY":27.8763,"EPHEMERIS_TYPE":0,"CLASSIFICATION_TYPE":"U","NORAD_CAT_ID":34713,"ELEMENT_SET_NO":999,"REV_AT_EPOCH":4509,"BSTAR":0,"MEAN_MOTION_DOT":0,"MEAN_MOTION_DDOT":0},{"OBJECT_NAME":"SES-7 (PROTOSTAR 2)","OBJECT_ID":"2009-027A","EPOCH":"2026-04-25T19:15:31.309344","MEAN_MOTION":1.00270853,"ECCENTRICITY":0.000178,"INCLINATION":0.0951,"RA_OF_ASC_NODE":79.148,"ARG_OF_PERICENTER":244.8253,"MEAN_ANOMALY":286.9758,"EPHEMERIS_TYPE":0,"CLASSIFICATION_TYPE":"U","NORAD_CAT_ID":34941,"ELEMENT_SET_NO":999,"REV_AT_EPOCH":6210,"BSTAR":0,"MEAN_MOTION_DOT":-3.58e-6,"MEAN_MOTION_DDOT":0},{"OBJECT_NAME":"MEASAT-3A","OBJECT_ID":"2009-032A","EPOCH":"2026-04-25T20:48:51.668352","MEAN_MOTION":1.00271582,"ECCENTRICITY":0.00034346,"INCLINATION":0.0369,"RA_OF_ASC_NODE":47.0671,"ARG_OF_PERICENTER":346.4442,"MEAN_ANOMALY":292.5777,"EPHEMERIS_TYPE":0,"CLASSIFICATION_TYPE":"U","NORAD_CAT_ID":35362,"ELEMENT_SET_NO":999,"REV_AT_EPOCH":750,"BSTAR":0,"MEAN_MOTION_DOT":-1.24e-6,"MEAN_MOTION_DDOT":0},{"OBJECT_NAME":"GOES 14","OBJECT_ID":"2009-033A","EPOCH":"2026-04-25T21:02:38.627808","MEAN_MOTION":1.00116377,"ECCENTRICITY":0.00017104,"INCLINATION":1.557,"RA_OF_ASC_NODE":83.637,"ARG_OF_PERICENTER":311.6603,"MEAN_ANOMALY":305.3506,"EPHEMERIS_TYPE":0,"CLASSIFICATION_TYPE":"U","NORAD_CAT_ID":35491,"ELEMENT_SET_NO":999,"REV_AT_EPOCH":606,"BSTAR":0,"MEAN_MOTION_DOT":-5.7e-7,"MEAN_MOTION_DDOT":0},{"OBJECT_NAME":"FM-5","OBJECT_ID":"2009-034A","EPOCH":"2026-04-25T20:49:38.771040","MEAN_MOTION":1.00270622,"ECCENTRICITY":6.71e-5,"INCLINATION":0.0135,"RA_OF_ASC_NODE":264.8841,"ARG_OF_PERICENTER":28.0187,"MEAN_ANOMALY":147.235,"EPHEMERIS_TYPE":0,"CLASSIFICATION_TYPE":"U","NORAD_CAT_ID":35493,"ELEMENT_SET_NO":999,"REV_AT_EPOCH":4611,"BSTAR":0,"MEAN_MOTION_DOT":-2.14e-6,"MEAN_MOTION_DDOT":0},{"OBJECT_NAME":"TERRESTAR-1","OBJECT_ID":"2009-035A","EPOCH":"2026-04-25T14:29:23.510112","MEAN_MOTION":1.00272151,"ECCENTRICITY":0.00029571,"INCLINATION":5.1491,"RA_OF_ASC_NODE":48.807,"ARG_OF_PERICENTER":347.0409,"MEAN_ANOMALY":284.1124,"EPHEMERIS_TYPE":0,"CLASSIFICATION_TYPE":"U","NORAD_CAT_ID":35496,"ELEMENT_SET_NO":999,"REV_AT_EPOCH":6160,"BSTAR":0,"MEAN_MOTION_DOT":-6.7e-7,"MEAN_MOTION_DDOT":0},{"OBJECT_NAME":"ASIASAT 5","OBJECT_ID":"2009-042A","EPOCH":"2026-04-24T19:15:53.527104","MEAN_MOTION":1.00268854,"ECCENTRICITY":0.00016731,"INCLINATION":0.061,"RA_OF_ASC_NODE":87.0873,"ARG_OF_PERICENTER":309.2096,"MEAN_ANOMALY":205.9919,"EPHEMERIS_TYPE":0,"CLASSIFICATION_TYPE":"U","NORAD_CAT_ID":35696,"ELEMENT_SET_NO":999,"REV_AT_EPOCH":6117,"BSTAR":0,"MEAN_MOTION_DOT":-3.21e-6,"MEAN_MOTION_DDOT":0},{"OBJECT_NAME":"JCSAT-12 (JCSAT-RA)","OBJECT_ID":"2009-044A","EPOCH":"2026-04-25T15:56:55.656384","MEAN_MOTION":1.00266711,"ECCENTRICITY":4.124e-5,"INCLINATION":0.0116,"RA_OF_ASC_NODE":249.8606,"ARG_OF_PERICENTER":163.1762,"MEAN_ANOMALY":171.9285,"EPHEMERIS_TYPE":0,"CLASSIFICATION_TYPE":"U","NORAD_CAT_ID":35755,"ELEMENT_SET_NO":999,"REV_AT_EPOCH":6108,"BSTAR":0,"MEAN_MOTION_DOT":0,"MEAN_MOTION_DDOT":0},{"OBJECT_NAME":"OPTUS D3","OBJECT_ID":"2009-044B","EPOCH":"2026-04-25T21:11:50.155296","MEAN_MOTION":1.00270794,"ECCENTRICITY":0.00031187,"INCLINATION":0.857,"RA_OF_ASC_NODE":270.2154,"ARG_OF_PERICENTER":119.867,"MEAN_ANOMALY":297.8997,"EPHEMERIS_TYPE":0,"CLASSIFICATION_TYPE":"U","NORAD_CAT_ID":35756,"ELEMENT_SET_NO":999,"REV_AT_EPOCH":6104,"BSTAR":0,"MEAN_MOTION_DOT":-1.61e-6,"MEAN_MOTION_DDOT":0},{"OBJECT_NAME":"NIMIQ 5","OBJECT_ID":"2009-050A","EPOCH":"2026-04-25T20:49:38.771040","MEAN_MOTION":1.00268867,"ECCENTRICITY":0.00030107,"INCLINATION":0.0218,"RA_OF_ASC_NODE":108.1624,"ARG_OF_PERICENTER":295.8677,"MEAN_ANOMALY":49.5663,"EPHEMERIS_TYPE":0,"CLASSIFICATION_TYPE":"U","NORAD_CAT_ID":35873,"ELEMENT_SET_NO":999,"REV_AT_EPOCH":6082,"BSTAR":0,"MEAN_MOTION_DOT":0,"MEAN_MOTION_DDOT":0},{"OBJECT_NAME":"AMAZONAS 2","OBJECT_ID":"2009-054A","EPOCH":"2026-04-25T20:57:38.714400","MEAN_MOTION":1.00273586,"ECCENTRICITY":0.00033934,"INCLINATION":1.6808,"RA_OF_ASC_NODE":83.676,"ARG_OF_PERICENTER":303.9428,"MEAN_ANOMALY":79.877,"EPHEMERIS_TYPE":0,"CLASSIFICATION_TYPE":"U","NORAD_CAT_ID":35942,"ELEMENT_SET_NO":999,"REV_AT_EPOCH":6066,"BSTAR":0,"MEAN_MOTION_DOT":-2.95e-6,"MEAN_MOTION_DDOT":0},{"OBJECT_NAME":"COMSATBW-1","OBJECT_ID":"2009-054B","EPOCH":"2026-04-25T23:29:50.589600","MEAN_MOTION":1.00269872,"ECCENTRICITY":0.0003594,"INCLINATION":0.0187,"RA_OF_ASC_NODE":107.9387,"ARG_OF_PERICENTER":295.8941,"MEAN_ANOMALY":225.6245,"EPHEMERIS_TYPE":0,"CLASSIFICATION_TYPE":"U","NORAD_CAT_ID":35943,"ELEMENT_SET_NO":999,"REV_AT_EPOCH":6078,"BSTAR":0,"MEAN_MOTION_DOT":0,"MEAN_MOTION_DDOT":0},{"OBJECT_NAME":"NSS-12","OBJECT_ID":"2009-058A","EPOCH":"2026-04-25T23:25:46.454304","MEAN_MOTION":1.00271946,"ECCENTRICITY":0.00050455,"INCLINATION":0.0613,"RA_OF_ASC_NODE":61.9212,"ARG_OF_PERICENTER":309.9464,"MEAN_ANOMALY":250.5525,"EPHEMERIS_TYPE":0,"CLASSIFICATION_TYPE":"U","NORAD_CAT_ID":36032,"ELEMENT_SET_NO":999,"REV_AT_EPOCH":6039,"BSTAR":0,"MEAN_MOTION_DOT":5.8e-7,"MEAN_MOTION_DDOT":0},{"OBJECT_NAME":"THOR 6","OBJECT_ID":"2009-058B","EPOCH":"2026-04-25T22:09:44.600832","MEAN_MOTION":1.00272061,"ECCENTRICITY":0.00017477,"INCLINATION":0.0386,"RA_OF_ASC_NODE":73.7247,"ARG_OF_PERICENTER":319.4232,"MEAN_ANOMALY":152.3792,"EPHEMERIS_TYPE":0,"CLASSIFICATION_TYPE":"U","NORAD_CAT_ID":36033,"ELEMENT_SET_NO":999,"REV_AT_EPOCH":6048,"BSTAR":0,"MEAN_MOTION_DOT":-2.3e-7,"MEAN_MOTION_DDOT":0}]
